{"type":"FeatureCollection","features":[{"type":"Feature","geometry":{"type":"Point","coordinates":[29.2883,70.98675]},"properties":{"id":"7b19e2f2-1e27-4d6f-91ec-fd230d20fe8e","lost_time":"2025-10-11T06:28:00+00:00","gear_type":"longline","float_prob":0.2}},{"type":"Feature","geometry":{"type":"Point","coordinates":[29.42959,70.05501]},"properties":{"id":"183b3a5b-2fd0-4d2a-9c77-77281bb30173","lost_time":"2025-10-15T08:25:00+00:00","gear_type":"crab_pot","float_prob":0.05}},{"type":"Feature","geometry":{"type":"Point","coordinates":[29.40347,70.05801]},"properties":{"id":"2649e37d-4983-4386-bc52-e0093db3ec65","lost_time":"2025-10-15T08:26:00+00:00","gear_type":"crab_pot","float_prob":0.05}},{"type":"Feature","geometry":{"type":"Point","coordinates":[29.4723,70.97005]},"properties":{"id":"10194ba7-2aef-462c-a5d6-ac7c3f9bb11f","lost_time":"2025-10-15T17:37:00+00:00","gear_type":"crab_pot","float_prob":0.05}},{"type":"Feature","geometry":{"type":"Point","coordinates":[29.32707,70.97589]},"properties":{"id":"30aa50a2-cd39-4593-b0af-6c9be6e92f46","lost_time":"2025-10-19T10:13:00+00:00","gear_type":"longline","float_prob":0.2}},{"type":"Feature","geometry":{"type":"Point","coordinates":[26.00478,70.92453]},"properties":{"id":"5e862cee-8b9f-45d7-8ca0-daaa28a39706","lost_time":"2025-10-22T05:30:00+00:00","gear_type":"crab_pot","float_prob":0.05}},{"type":"Feature","geometry":{"type":"Point","coordinates":[30.41919,69.76104]},"properties":{"id":"8c10b599-2381-439b-8dc9-2642bfaba55e","lost_time":"2025-10-28T11:56:00+00:00","gear_type":"crab_pot","float_prob":0.05}},{"type":"Feature","geometry":{"type":"Point","coordinates":[29.96387,70.80694]},"properties":{"id":"809331c6-7012-47f7-a70c-d0a2dae87938","lost_time":"2025-11-02T21:47:00+00:00","gear_type":"crab_pot","float_prob":0.05}},{"type":"Feature","geometry":{"type":"Point","coordinates":[29.94234,70.8258]},"properties":{"id":"5a6d6e6e-205c-461c-b7f3-710b1facbabd","lost_time":"2025-11-03T11:39:00+00:00","gear_type":"crab_pot","float_prob":0.05}},{"type":"Feature","geometry":{"type":"Point","coordinates":[31.30281,70.36065]},"properties":{"id":"41f2af17-7063-4598-998e-77215c5496ac","lost_time":"2025-11-05T15:03:00+00:00","gear_type":"longline","float_prob":0.2}},{"type":"Feature","geometry":{"type":"Point","coordinates":[26.79717,71.20061]},"properties":{"id":"1729874a-f668-4a48-a3dd-1768ddc2a34b","lost_time":"2025-11-05T16:38:00+00:00","gear_type":"nets","float_prob":0.3}},{"type":"Feature","geometry":{"type":"Point","coordinates":[29.76904,70.83546]},"properties":{"id":"686eb669-1bde-4980-a523-5e9cf5270174","lost_time":"2025-11-06T08:02:00+00:00","gear_type":"longline","float_prob":0.2}},{"type":"Feature","geometry":{"type":"Point","coordinates":[28.43901,70.80653]},"properties":{"id":"a5f2d7f3-60b1-400b-8f91-f6403d9e7442","lost_time":"2025-11-06T10:45:00+00:00","gear_type":"crab_pot","float_prob":0.05}},{"type":"Feature","geometry":{"type":"Point","coordinates":[25.87007,70.79043]},"properties":{"id":"8f616f35-37f7-4aef-813f-428b192fdd24","lost_time":"2025-11-10T06:30:00+00:00","gear_type":"longline","float_prob":0.2}},{"type":"Feature","geometry":{"type":"Point","coordinates":[30.59059,71.00882]},"properties":{"id":"b25628e0-57a0-4cb3-abd9-8d409db6c2cd","lost_time":"2025-11-10T11:37:00+00:00","gear_type":"longline","float_prob":0.2}},{"type":"Feature","geometry":{"type":"Point","coordinates":[29.71994,70.84012]},"properties":{"id":"f387c842-0089-4044-8b4a-ccc41db5ee20","lost_time":"2025-11-12T18:10:00+00:00","gear_type":"longline","float_prob":0.2}},{"type":"Feature","geometry":{"type":"Point","coordinates":[28.13,70.35]},"properties":{"id":"47c04306-7e1b-46e9-8e7b-8145f2f6f56b","lost_time":"2025-11-13T17:00:00+00:00","gear_type":"crab_pot","float_prob":0.05}},{"type":"Feature","geometry":{"type":"Point","coordinates":[30.18204,70.77699]},"properties":{"id":"56eebd2e-aa02-44c3-90f5-a00c0de3ed5a","lost_time":"2025-11-20T12:40:00+00:00","gear_type":"longline","float_prob":0.2}},{"type":"Feature","geometry":{"type":"Point","coordinates":[29.77341,70.87306]},"properties":{"id":"4f1df18f-2aa1-40db-923c-9e7359a62300","lost_time":"2025-11-23T13:00:00+00:00","gear_type":"crab_pot","float_prob":0.05}},{"type":"Feature","geometry":{"type":"Point","coordinates":[29.64417,70.84341]},"properties":{"id":"480722bd-da61-4875-b683-a16666a03e20","lost_time":"2025-11-25T11:30:00+00:00","gear_type":"longline","float_prob":0.2}},{"type":"Feature","geometry":{"type":"Point","coordinates":[25.84443,71.1853]},"properties":{"id":"456e18aa-ddf2-494e-b309-badf3802d91f","lost_time":"2025-11-28T09:55:00+00:00","gear_type":"crab_pot","float_prob":0.05}},{"type":"Feature","geometry":{"type":"Point","coordinates":[29.4808,70.89844]},"properties":{"id":"f1354829-a446-4ab4-abbf-5bc8f5b270a3","lost_time":"2025-11-29T07:47:00+00:00","gear_type":"longline","float_prob":0.2}},{"type":"Feature","geometry":{"type":"Point","coordinates":[25.84212,71.18488]},"properties":{"id":"60968c7c-8266-471c-84ae-1f14936bfba6","lost_time":"2025-11-29T09:56:00+00:00","gear_type":"crab_pot","float_prob":0.05}},{"type":"Feature","geometry":{"type":"Point","coordinates":[25.24396,70.33954]},"properties":{"id":"efe29baa-49f5-4eef-bf00-780fc94fd192","lost_time":"2025-12-01T12:08:00+00:00","gear_type":"crab_pot","float_prob":0.05}},{"type":"Feature","geometry":{"type":"Point","coordinates":[29.93379,70.81013]},"properties":{"id":"1f2e1f3c-c206-4fad-a719-f9a8b8ad6e48","lost_time":"2025-12-02T08:04:00+00:00","gear_type":"crab_pot","float_prob":0.05}},{"type":"Feature","geometry":{"type":"Point","coordinates":[29.78204,69.86301]},"properties":{"id":"638976fb-3ce3-4bc3-92fc-b40c5cb68bae","lost_time":"2025-12-03T13:29:00+00:00","gear_type":"crab_pot","float_prob":0.05}},{"type":"Feature","geometry":{"type":"Point","coordinates":[28.56685,70.88118]},"properties":{"id":"e7bca5ed-e073-45a9-bcb6-86ee920223fc","lost_time":"2025-12-04T11:20:00+00:00","gear_type":"crab_pot","float_prob":0.05}},{"type":"Feature","geometry":{"type":"Point","coordinates":[26.92465,70.9172]},"properties":{"id":"9e759843-4dd6-4b50-bc24-49bb88f8f082","lost_time":"2025-12-04T14:55:00+00:00","gear_type":"crab_pot","float_prob":0.05}},{"type":"Feature","geometry":{"type":"Point","coordinates":[26.16584,71.12504]},"properties":{"id":"0b254efb-1769-4e93-a17e-11f0d9834bcc","lost_time":"2025-12-05T13:26:00+00:00","gear_type":"crab_pot","float_prob":0.05}},{"type":"Feature","geometry":{"type":"Point","coordinates":[26.02171,70.96711]},"properties":{"id":"53a14621-82a2-4322-b333-a2e864e107f7","lost_time":"2025-12-08T08:31:00+00:00","gear_type":"crab_pot","float_prob":0.05}},{"type":"Feature","geometry":{"type":"Point","coordinates":[26.00094,70.96404]},"properties":{"id":"a745a82e-6db0-4473-9b61-ee161d187885","lost_time":"2025-12-08T08:35:00+00:00","gear_type":"crab_pot","float_prob":0.05}},{"type":"Feature","geometry":{"type":"Point","coordinates":[29.80547,70.66481]},"properties":{"id":"cb6b8673-f291-414f-a659-99dfc77c17d6","lost_time":"2025-12-13T09:00:00+00:00","gear_type":"crab_pot","float_prob":0.05}},{"type":"Feature","geometry":{"type":"Point","coordinates":[25.14249,70.968]},"properties":{"id":"c4c6d9a6-bf57-4182-966d-55046e277ae0","lost_time":"2025-12-19T10:35:00+00:00","gear_type":"crab_pot","float_prob":0.05}},{"type":"Feature","geometry":{"type":"Point","coordinates":[30.00965,69.88175]},"properties":{"id":"413b3abc-f65b-4b08-bae5-c33750216192","lost_time":"2025-12-22T21:05:00+00:00","gear_type":"crab_pot","float_prob":0.05}},{"type":"Feature","geometry":{"type":"Point","coordinates":[30.02547,69.86994]},"properties":{"id":"8a3bdd3c-8344-4b09-8b3a-0f9a3d5dae08","lost_time":"2025-12-22T21:05:00+00:00","gear_type":"crab_pot","float_prob":0.05}},{"type":"Feature","geometry":{"type":"Point","coordinates":[25.29705,70.20757]},"properties":{"id":"065457f6-ccdd-491e-8dbf-470416157a18","lost_time":"2025-12-27T14:00:00+00:00","gear_type":"crab_pot","float_prob":0.05}},{"type":"Feature","geometry":{"type":"Point","coordinates":[26.71511,70.92594]},"properties":{"id":"2e00546b-1350-4f4a-84bd-55da3dcb55ed","lost_time":"2025-12-30T15:01:00+00:00","gear_type":"crab_pot","float_prob":0.05}},{"type":"Feature","geometry":{"type":"Point","coordinates":[26.71931,70.91778]},"properties":{"id":"2e3e2f82-02e3-45d3-9acb-e62d643605a6","lost_time":"2025-12-30T15:03:00+00:00","gear_type":"crab_pot","float_prob":0.05}},{"type":"Feature","geometry":{"type":"Point","coordinates":[26.25057,71.13978]},"properties":{"id":"4962aa82-3d1a-4be7-b9ea-34e28c780540","lost_time":"2026-01-27T12:10:00+00:00","gear_type":"nets","float_prob":0.3}},{"type":"Feature","geometry":{"type":"Point","coordinates":[30.65482,69.819]},"properties":{"id":"9b9bef93-e0fb-425f-b56f-fbf239eaa3e5","lost_time":"2026-02-02T11:58:00+00:00","gear_type":"longline","float_prob":0.2}},{"type":"Feature","geometry":{"type":"Point","coordinates":[29.74556,70.62971]},"properties":{"id":"0b8fa665-5e64-4a79-bcaa-073539cf0009","lost_time":"2026-02-07T15:28:00+00:00","gear_type":"crab_pot","float_prob":0.05}},{"type":"Feature","geometry":{"type":"Point","coordinates":[29.52702,70.74228]},"properties":{"id":"b31191d1-ab4d-46ca-9c4a-de20a2e095a1","lost_time":"2026-02-11T09:50:00+00:00","gear_type":"crab_pot","float_prob":0.05}},{"type":"Feature","geometry":{"type":"Point","coordinates":[29.69858,70.0449]},"properties":{"id":"36c0b306-27cf-4788-a28e-37a6791e6842","lost_time":"2026-02-16T17:58:00+00:00","gear_type":"crab_pot","float_prob":0.05}},{"type":"Feature","geometry":{"type":"Point","coordinates":[30.24231,70.08335]},"properties":{"id":"491a8576-d12c-4378-8c01-07c2717e4a07","lost_time":"2026-02-19T13:33:00+00:00","gear_type":"crab_pot","float_prob":0.05}},{"type":"Feature","geometry":{"type":"Point","coordinates":[30.61531,70.22697]},"properties":{"id":"bc3ed7a1-c829-44b9-9a0c-f2ea4fcc06b7","lost_time":"2026-02-20T14:10:00+00:00","gear_type":"longline","float_prob":0.2}},{"type":"Feature","geometry":{"type":"Point","coordinates":[29.76972,69.90335]},"properties":{"id":"37e8bf79-8d0c-4820-9b6c-98fdaa828590","lost_time":"2026-02-25T16:56:00+00:00","gear_type":"crab_pot","float_prob":0.05}},{"type":"Feature","geometry":{"type":"Point","coordinates":[29.51873,70.72878]},"properties":{"id":"0998896f-06e6-4fff-aa6b-85723c189a4e","lost_time":"2026-02-26T07:20:00+00:00","gear_type":"crab_pot","float_prob":0.05}},{"type":"Feature","geometry":{"type":"Point","coordinates":[30.32025,69.84452]},"properties":{"id":"af60421e-dd2b-4078-918a-15ff5661dac7","lost_time":"2026-02-26T19:43:00+00:00","gear_type":"crab_pot","float_prob":0.05}},{"type":"Feature","geometry":{"type":"Point","coordinates":[25.95647,70.96918]},"properties":{"id":"2d6b0723-1bfd-41fb-8a0f-e7a154b5ebf1","lost_time":"2026-03-01T09:55:00+00:00","gear_type":"crab_pot","float_prob":0.05}},{"type":"Feature","geometry":{"type":"Point","coordinates":[25.97278,71.1798]},"properties":{"id":"17b986f2-2962-4704-b0e1-eabe0cbc5fed","lost_time":"2026-03-01T10:00:00+00:00","gear_type":"crab_pot","float_prob":0.05}},{"type":"Feature","geometry":{"type":"Point","coordinates":[30.88285,70.2462]},"properties":{"id":"cb0ddc2d-92e0-4234-b4cb-6ca7c091c319","lost_time":"2026-03-01T15:49:00+00:00","gear_type":"crab_pot","float_prob":0.05}},{"type":"Feature","geometry":{"type":"Point","coordinates":[29.67251,69.92256]},"properties":{"id":"39d2f659-e666-4b43-ab4a-c4439252e729","lost_time":"2026-03-01T17:54:00+00:00","gear_type":"crab_pot","float_prob":0.05}},{"type":"Feature","geometry":{"type":"Point","coordinates":[27.11003,70.90329]},"properties":{"id":"bac07fcb-7e10-44cb-894c-88ea9522b8e1","lost_time":"2026-03-05T09:05:00+00:00","gear_type":"nets","float_prob":0.3}},{"type":"Feature","geometry":{"type":"Point","coordinates":[27.23312,70.98548]},"properties":{"id":"4a4b90a4-986e-4b73-99dd-675a8761ef40","lost_time":"2026-03-13T13:05:00+00:00","gear_type":"nets","float_prob":0.3}},{"type":"Feature","geometry":{"type":"Point","coordinates":[26.10742,71.20358]},"properties":{"id":"540f98c5-00b4-431a-bccf-3255f8b4ce5f","lost_time":"2026-03-15T10:46:00+00:00","gear_type":"generic","float_prob":0.5}},{"type":"Feature","geometry":{"type":"Point","coordinates":[30.80731,70.24462]},"properties":{"id":"43c5d8b6-1fb3-465b-b441-487f33c6a908","lost_time":"2026-03-25T17:02:00+00:00","gear_type":"crab_pot","float_prob":0.05}},{"type":"Feature","geometry":{"type":"Point","coordinates":[27.20423,70.99081]},"properties":{"id":"d0226f37-d81f-48cd-b36e-9b1c1b6e7345","lost_time":"2026-03-26T09:37:00+00:00","gear_type":"nets","float_prob":0.3}},{"type":"Feature","geometry":{"type":"Point","coordinates":[29.69934,70.03968]},"properties":{"id":"6c6c4be3-4036-4a62-8c92-47730a8c7aeb","lost_time":"2026-03-31T09:07:00+00:00","gear_type":"crab_pot","float_prob":0.05}},{"type":"Feature","geometry":{"type":"Point","coordinates":[29.52179,70.84932]},"properties":{"id":"483df2e5-9e99-4434-a3da-02126b74956e","lost_time":"2026-04-08T19:35:00+00:00","gear_type":"longline","float_prob":0.2}},{"type":"Feature","geometry":{"type":"Point","coordinates":[27.04618,70.91757]},"properties":{"id":"00fb55ca-9483-401f-8f29-3e596d6d520c","lost_time":"2026-04-11T09:00:00+00:00","gear_type":"nets","float_prob":0.3}},{"type":"Feature","geometry":{"type":"Point","coordinates":[31.18466,70.33103]},"properties":{"id":"b5657932-8170-4909-a1a8-90c71647cc2d","lost_time":"2026-04-11T13:55:00+00:00","gear_type":"nets","float_prob":0.3}},{"type":"Feature","geometry":{"type":"Point","coordinates":[31.19924,70.34003]},"properties":{"id":"81a6d895-e4db-49e8-9622-870d28793627","lost_time":"2026-04-11T13:55:00+00:00","gear_type":"nets","float_prob":0.3}},{"type":"Feature","geometry":{"type":"Point","coordinates":[25.84502,71.18619]},"properties":{"id":"501f7877-ea08-4c1e-bb0c-f805d7b93531","lost_time":"2026-04-14T17:40:00+00:00","gear_type":"crab_pot","float_prob":0.05}},{"type":"Feature","geometry":{"type":"Point","coordinates":[29.61287,70.03791]},"properties":{"id":"cd20f9be-e4bb-436b-ad0c-563775f7c010","lost_time":"2026-04-15T17:57:00+00:00","gear_type":"crab_pot","float_prob":0.05}},{"type":"Feature","geometry":{"type":"Point","coordinates":[29.72216,70.03361]},"properties":{"id":"73b4a014-4822-4620-9d9e-4cc02ebf79ab","lost_time":"2026-04-30T10:54:00+00:00","gear_type":"crab_pot","float_prob":0.05}},{"type":"Feature","geometry":{"type":"Point","coordinates":[29.12996,70.07682]},"properties":{"id":"6ae9c1b0-2a7f-4315-a8f6-7e6491c6cb74","lost_time":"2026-05-12T11:00:00+00:00","gear_type":"crab_pot","float_prob":0.05}},{"type":"Feature","geometry":{"type":"Point","coordinates":[25.41093,70.98576]},"properties":{"id":"4cf87f47-5937-4c4f-9f67-d0df31b15978","lost_time":"2026-06-04T23:12:00+00:00","gear_type":"crab_pot","float_prob":0.05}},{"type":"Feature","geometry":{"type":"Point","coordinates":[29.85411,70.71605]},"properties":{"id":"16610740-f580-4326-b7cf-ccd5dff64603","lost_time":"2026-06-06T05:50:00+00:00","gear_type":"crab_pot","float_prob":0.05}},{"type":"Feature","geometry":{"type":"Point","coordinates":[29.85514,70.71603]},"properties":{"id":"13011cb4-9621-49f0-a790-cada493a416f","lost_time":"2026-06-06T08:44:00+00:00","gear_type":"crab_pot","float_prob":0.05}},{"type":"Feature","geometry":{"type":"Point","coordinates":[25.50884,70.93726]},"properties":{"id":"a95c2f17-baa3-44dd-b464-4313692da315","lost_time":"2026-06-09T10:00:00+00:00","gear_type":"crab_pot","float_prob":0.05}},{"type":"Feature","geometry":{"type":"Point","coordinates":[25.50619,70.93813]},"properties":{"id":"51ea4374-4f03-4957-b2d3-91e78f0021c5","lost_time":"2026-06-09T10:00:00+00:00","gear_type":"crab_pot","float_prob":0.05}},{"type":"Feature","geometry":{"type":"Point","coordinates":[25.52186,70.93771]},"properties":{"id":"d9de1f0e-7743-4a5a-950e-71a72e96bff4","lost_time":"2026-06-09T10:00:00+00:00","gear_type":"crab_pot","float_prob":0.05}},{"type":"Feature","geometry":{"type":"Point","coordinates":[25.51322,70.9415]},"properties":{"id":"470db2b9-33e2-459d-b899-d527741f15ff","lost_time":"2026-06-09T10:00:00+00:00","gear_type":"crab_pot","float_prob":0.05}},{"type":"Feature","geometry":{"type":"Point","coordinates":[25.48716,70.9401]},"properties":{"id":"1856880d-fea0-414e-9d9b-151b7bafb7eb","lost_time":"2026-06-09T10:00:00+00:00","gear_type":"crab_pot","float_prob":0.05}},{"type":"Feature","geometry":{"type":"Point","coordinates":[25.51741,70.93916]},"properties":{"id":"0dc85fe8-24ce-4a5b-9c68-10fde23c3974","lost_time":"2026-06-09T10:00:00+00:00","gear_type":"crab_pot","float_prob":0.05}},{"type":"Feature","geometry":{"type":"Point","coordinates":[30.41334,69.78397]},"properties":{"id":"a8c75201-ee4a-4bcb-8e2a-75d3effaea61","lost_time":"2026-06-12T05:00:00+00:00","gear_type":"crab_pot","float_prob":0.05}},{"type":"Feature","geometry":{"type":"Point","coordinates":[29.72923,70.01172]},"properties":{"id":"59cde757-4957-437b-86cd-8d9932cbb5a2","lost_time":"2026-06-24T13:30:00+00:00","gear_type":"crab_pot","float_prob":0.05}},{"type":"Feature","geometry":{"type":"Point","coordinates":[29.09743,70.08607]},"properties":{"id":"c52841a4-c77e-4497-a4e9-73f605567542","lost_time":"2026-06-29T12:44:00+00:00","gear_type":"crab_pot","float_prob":0.05}},{"type":"Feature","geometry":{"type":"Point","coordinates":[29.65823,70.02544]},"properties":{"id":"e987972b-877b-44cf-b400-eaef3df7f643","lost_time":"2026-07-09T10:39:00+00:00","gear_type":"crab_pot","float_prob":0.05}},{"type":"Feature","geometry":{"type":"Point","coordinates":[29.64419,70.02909]},"properties":{"id":"5ca74a64-d88d-45cb-a627-c8a2b8eea308","lost_time":"2026-07-10T08:47:46.944444+00:00","gear_type":"crab_pot","float_prob":0.05}},{"type":"Feature","geometry":{"type":"Point","coordinates":[29.62172,70.02927]},"properties":{"id":"6b2ff976-a86c-46ff-9367-7349073cc0be","lost_time":"2026-07-10T08:48:47.575490+00:00","gear_type":"crab_pot","float_prob":0.05}},{"type":"Feature","geometry":{"type":"Point","coordinates":[29.63194,69.74119]},"properties":{"id":"8a902380-5115-48f1-9298-b78b2d595262","lost_time":"2026-07-10T20:30:00+00:00","gear_type":"crab_pot","float_prob":0.05}},{"type":"Feature","geometry":{"type":"Point","coordinates":[26.22028,71.14187]},"properties":{"id":"bd2b6276-a7fe-4197-a967-101d706af8ed","lost_time":"2026-07-21T11:32:00+00:00","gear_type":"nets","float_prob":0.3}},{"type":"Feature","geometry":{"type":"Point","coordinates":[28.27682,71.2144]},"properties":{"id":"11a24ec3-5361-4962-aa23-75dde5e26aef","lost_time":"2026-07-22T16:27:00+00:00","gear_type":"longline","float_prob":0.2}},{"type":"Feature","geometry":{"type":"Point","coordinates":[30.02886,69.79284]},"properties":{"id":"285cb79f-371f-48f7-ad51-d9c0c62f9384","lost_time":"2026-07-31T14:00:00+00:00","gear_type":"crab_pot","float_prob":0.05}},{"type":"Feature","geometry":{"type":"Point","coordinates":[29.81022,70.05411]},"properties":{"id":"875fd11c-f2c7-4f5c-9d85-3053dab0618b","lost_time":"2026-08-02T16:05:00+00:00","gear_type":"crab_pot","float_prob":0.05}},{"type":"Feature","geometry":{"type":"Point","coordinates":[29.0458,70.05515]},"properties":{"id":"b826b39f-0f3c-499e-baf6-7ac015b5659d","lost_time":"2026-08-10T07:00:00+00:00","gear_type":"crab_pot","float_prob":0.05}},{"type":"Feature","geometry":{"type":"Point","coordinates":[29.26747,70.95675]},"properties":{"id":"b8992d3d-bdb5-448a-9ea1-25b236fc3a05","lost_time":"2026-08-17T07:55:00+00:00","gear_type":"longline","float_prob":0.2}},{"type":"Feature","geometry":{"type":"Point","coordinates":[30.9595,70.62617]},"properties":{"id":"55518f89-ffa5-416b-908c-be80df79c7e8","lost_time":"2026-08-18T10:48:00+00:00","gear_type":"nets","float_prob":0.3}},{"type":"Feature","geometry":{"type":"Point","coordinates":[27.57675,70.31139]},"properties":{"id":"2e402009-bdd7-4b64-9246-fa41591c833a","lost_time":"2026-08-18T12:10:00+00:00","gear_type":"crab_pot","float_prob":0.05}},{"type":"Feature","geometry":{"type":"Point","coordinates":[26.04184,70.95723]},"properties":{"id":"db5609ea-7fcf-45af-bff8-14dbe9b90f83","lost_time":"2026-08-20T08:42:00+00:00","gear_type":"crab_pot","float_prob":0.05}},{"type":"Feature","geometry":{"type":"Point","coordinates":[29.66792,70.84226]},"properties":{"id":"fc902618-75c5-4c29-b03e-964ebd1caf5c","lost_time":"2026-08-24T18:15:00+00:00","gear_type":"longline","float_prob":0.2}},{"type":"Feature","geometry":{"type":"Point","coordinates":[30.10775,69.79682]},"properties":{"id":"822fb14e-3e5d-4d49-842e-39d6f5621e8b","lost_time":"2026-08-29T09:44:00+00:00","gear_type":"crab_pot","float_prob":0.05}},{"type":"Feature","geometry":{"type":"Point","coordinates":[25.85246,71.18645]},"properties":{"id":"2c38e76b-b975-4368-8686-873e9d17b862","lost_time":"2026-08-31T10:00:00+00:00","gear_type":"crab_pot","float_prob":0.05}},{"type":"Feature","geometry":{"type":"Point","coordinates":[25.97555,71.17962]},"properties":{"id":"15e549ea-ffd5-4ec2-98b7-32276621e3f2","lost_time":"2026-08-31T10:57:00+00:00","gear_type":"crab_pot","float_prob":0.05}},{"type":"Feature","geometry":{"type":"Point","coordinates":[29.7811,70.87537]},"properties":{"id":"6e83e64b-da9b-4221-849e-1847280a05af","lost_time":"2026-08-31T12:39:05.406697+00:00","gear_type":"crab_pot","float_prob":0.05}},{"type":"Feature","geometry":{"type":"Point","coordinates":[29.58012,69.91059]},"properties":{"id":"b44ee1c5-8e80-49ac-93f1-e4399df11d7f","lost_time":"2026-09-01T16:30:00+00:00","gear_type":"crab_pot","float_prob":0.05}},{"type":"Feature","geometry":{"type":"Point","coordinates":[25.55085,70.52793]},"properties":{"id":"b68c38a7-1ccd-4ae6-9801-c4f2ce607946","lost_time":"2026-09-06T18:26:00+00:00","gear_type":"crab_pot","float_prob":0.05}},{"type":"Feature","geometry":{"type":"Point","coordinates":[29.69364,70.03425]},"properties":{"id":"2a840416-2518-4cd8-9332-09ee6dfac95f","lost_time":"2026-09-07T18:24:00+00:00","gear_type":"crab_pot","float_prob":0.05}},{"type":"Feature","geometry":{"type":"Point","coordinates":[26.16356,70.97912]},"properties":{"id":"781d2769-3d71-4ed9-829d-d745be0fbd6e","lost_time":"2026-09-08T16:50:00+00:00","gear_type":"crab_pot","float_prob":0.05}},{"type":"Feature","geometry":{"type":"Point","coordinates":[26.75408,70.84839]},"properties":{"id":"d78d9010-3d05-4faf-a72b-008ae0f5db62","lost_time":"2026-09-09T00:18:00+00:00","gear_type":"longline","float_prob":0.2}},{"type":"Feature","geometry":{"type":"Point","coordinates":[29.5296,69.92054]},"properties":{"id":"0044b29c-5a23-4047-8f64-6763e05133e4","lost_time":"2026-09-09T08:25:00+00:00","gear_type":"crab_pot","float_prob":0.05}},{"type":"Feature","geometry":{"type":"Point","coordinates":[29.60143,70.04135]},"properties":{"id":"178a8ce9-4d9c-4e1e-b6b9-6131b016ac1f","lost_time":"2026-09-09T18:00:00+00:00","gear_type":"crab_pot","float_prob":0.05}},{"type":"Feature","geometry":{"type":"Point","coordinates":[25.99552,71.18101]},"properties":{"id":"fb076de6-0572-43d4-92cd-757bd343d372","lost_time":"2026-09-10T10:00:00+00:00","gear_type":"crab_pot","float_prob":0.05}},{"type":"Feature","geometry":{"type":"Point","coordinates":[25.99126,71.18131]},"properties":{"id":"86fbc2f8-6e1e-4162-8855-d19e180e5ce9","lost_time":"2026-09-10T10:00:00+00:00","gear_type":"crab_pot","float_prob":0.05}},{"type":"Feature","geometry":{"type":"Point","coordinates":[25.99725,71.18087]},"properties":{"id":"cabe54b4-68f5-4047-9a69-f3a33abca056","lost_time":"2026-09-10T10:00:00+00:00","gear_type":"crab_pot","float_prob":0.05}},{"type":"Feature","geometry":{"type":"Point","coordinates":[25.99995,71.18066]},"properties":{"id":"5b5fdf6e-34fa-446c-a7f8-338b8f980dea","lost_time":"2026-09-10T10:00:00+00:00","gear_type":"crab_pot","float_prob":0.05}},{"type":"Feature","geometry":{"type":"Point","coordinates":[25.99876,71.18317]},"properties":{"id":"372da560-3ffc-4c03-9e63-083a0c2edeae","lost_time":"2026-09-10T11:00:00+00:00","gear_type":"crab_pot","float_prob":0.05}},{"type":"Feature","geometry":{"type":"Point","coordinates":[25.99857,71.18142]},"properties":{"id":"f8bfcb7e-c7fd-402c-b02c-4f35bae30cbb","lost_time":"2026-09-10T11:00:00+00:00","gear_type":"crab_pot","float_prob":0.05}},{"type":"Feature","geometry":{"type":"Point","coordinates":[25.99858,71.18276]},"properties":{"id":"eef2472f-e20e-4582-83ca-9fccd623673e","lost_time":"2026-09-10T11:00:00+00:00","gear_type":"crab_pot","float_prob":0.05}},{"type":"Feature","geometry":{"type":"Point","coordinates":[25.99852,71.18209]},"properties":{"id":"9267ffae-e862-4c0c-8303-e43fbba92f68","lost_time":"2026-09-10T11:00:00+00:00","gear_type":"crab_pot","float_prob":0.05}},{"type":"Feature","geometry":{"type":"Point","coordinates":[25.9927,71.18308]},"properties":{"id":"568c48d8-7903-40cc-9fda-3bb3c1d00a00","lost_time":"2026-09-10T11:00:00+00:00","gear_type":"crab_pot","float_prob":0.05}},{"type":"Feature","geometry":{"type":"Point","coordinates":[25.98928,71.18269]},"properties":{"id":"a5827a71-1d16-4233-aebd-d14b478c5fff","lost_time":"2026-09-10T11:00:00+00:00","gear_type":"crab_pot","float_prob":0.05}},{"type":"Feature","geometry":{"type":"Point","coordinates":[25.99877,71.18314]},"properties":{"id":"eb7dd3b7-cce2-46a9-92d0-08b1c6f49b7d","lost_time":"2026-09-10T11:00:00+00:00","gear_type":"crab_pot","float_prob":0.05}},{"type":"Feature","geometry":{"type":"Point","coordinates":[26.0001,71.1826]},"properties":{"id":"92774a0e-6c8c-4eea-b18e-be40e50056f7","lost_time":"2026-09-10T11:00:00+00:00","gear_type":"crab_pot","float_prob":0.05}},{"type":"Feature","geometry":{"type":"Point","coordinates":[25.99525,71.1839]},"properties":{"id":"01a0254d-21d3-43e2-a1f8-1df90cc7a881","lost_time":"2026-09-10T11:00:00+00:00","gear_type":"crab_pot","float_prob":0.05}},{"type":"Feature","geometry":{"type":"Point","coordinates":[25.98929,71.18272]},"properties":{"id":"e5dc0a98-2f84-4a90-abe0-8b1a1d0116ed","lost_time":"2026-09-10T11:00:00+00:00","gear_type":"crab_pot","float_prob":0.05}},{"type":"Feature","geometry":{"type":"Point","coordinates":[25.99758,71.18378]},"properties":{"id":"e89f3dd1-1609-47c4-b490-a9358c7f09a8","lost_time":"2026-09-10T11:30:00+00:00","gear_type":"crab_pot","float_prob":0.05}},{"type":"Feature","geometry":{"type":"Point","coordinates":[27.18263,70.89622]},"properties":{"id":"282c4d2e-02c9-404a-87ae-53239fc436fc","lost_time":"2026-09-11T10:56:00+00:00","gear_type":"crab_pot","float_prob":0.05}},{"type":"Feature","geometry":{"type":"Point","coordinates":[29.83138,70.84033]},"properties":{"id":"1cd692f0-e1bd-4f62-9162-4f5a33f16ae9","lost_time":"2026-09-17T08:10:00+00:00","gear_type":"crab_pot","float_prob":0.05}},{"type":"Feature","geometry":{"type":"Point","coordinates":[28.32298,70.75879]},"properties":{"id":"8f0532fc-ebc6-4b0b-9fb0-4e010db44ea0","lost_time":"2026-09-21T09:10:00+00:00","gear_type":"generic","float_prob":0.5}},{"type":"Feature","geometry":{"type":"Point","coordinates":[25.23885,70.344]},"properties":{"id":"e75a847a-c3de-4b7e-a353-9f70acc6da3e","lost_time":"2026-09-24T16:00:00+00:00","gear_type":"crab_pot","float_prob":0.05}},{"type":"Feature","geometry":{"type":"Point","coordinates":[29.6651,70.04006]},"properties":{"id":"5bc9b541-9afc-45ba-95db-3a4685de44a3","lost_time":"2026-09-26T16:00:00+00:00","gear_type":"fish_pot","float_prob":0.05}},{"type":"Feature","geometry":{"type":"Point","coordinates":[29.70911,69.97318]},"properties":{"id":"444ac6fa-3c86-44c4-a0b0-2e7d79922517","lost_time":"2026-09-29T08:27:00+00:00","gear_type":"crab_pot","float_prob":0.05}},{"type":"Feature","geometry":{"type":"Point","coordinates":[26.21338,71.0087]},"properties":{"id":"50ab96ff-2523-45d1-8595-00b37a28f29e","lost_time":"2026-10-01T12:20:00+00:00","gear_type":"longline","float_prob":0.2}}]}